start=new Date('2023-01-31T00:00:00.000Z').valueOf();
sats=[{"BSTAR":"0.00008690400000","MEAN_MOTION_DOT":"0.00001013","COUNTRY_CODE":"US","OBJECT_NAME":"STARLINK-1911","MEAN_MOTION_DDOT":"0.0000000000000","MEAN_ELEMENT_THEORY":"SGP4","REF_FRAME":"TEME","OBJECT_ID":"2020-074L","EPOCH":"2023-01-30T22:54:48.318624","DECAY_DATE":null,"ECCENTRICITY":"0.00016640","CLASSIFICATION_TYPE":"U","PERIOD":"95.592","TLE_LINE2":"2 46749  53.0533  11.1578 0001664 100.3002 259.8174 15.06401325125794","INCLINATION":"53.0533","LAUNCH_DATE":"2020-10-24","PERIAPSIS":"546.057","CENTER_NAME":"EARTH","MEAN_ANOMALY":"259.8174","SEMIMAJOR_AXIS":"6925.344","OBJECT_TYPE":"PAYLOAD","SITE":"AFETR","ELEMENT_SET_NO":"999","RCS_SIZE":"LARGE","RA_OF_ASC_NODE":"11.1578","TIME_SYSTEM":"UTC","APOAPSIS":"548.362","NORAD_CAT_ID":"46749","TLE_LINE1":"1 46749U 20074L   23030.95472591  .00001013  00000-0  86904-4 0  9999","MEAN_MOTION":"15.06401325","REV_AT_EPOCH":"12579","GP_ID":"224050531","ARG_OF_PERICENTER":"100.3002","EPHEMERIS_TYPE":"0","FILE":"3765849"},{"OBJECT_TYPE":"PAYLOAD","SITE":"AFETR","ELEMENT_SET_NO":"999","MEAN_MOTION":"15.06396783","GP_ID":"224051781","REV_AT_EPOCH":"12579","ARG_OF_PERICENTER":"120.1091","FILE":"3765849","EPHEMERIS_TYPE":"0","TIME_SYSTEM":"UTC","RCS_SIZE":"LARGE","RA_OF_ASC_NODE":"11.1736","NORAD_CAT_ID":"46751","APOAPSIS":"548.202","TLE_LINE1":"1 46751U 20074N   23030.95104065  .00000169  00000-0  30262-4 0  9997","LAUNCH_DATE":"2020-10-24","PERIAPSIS":"546.245","CENTER_NAME":"EARTH","INCLINATION":"53.0530","SEMIMAJOR_AXIS":"6925.358","MEAN_ANOMALY":"240.0038","ECCENTRICITY":"0.00014130","CLASSIFICATION_TYPE":"U","TLE_LINE2":"2 46751  53.0530  11.1736 0001413 120.1091 240.0038 15.06396783125792","PERIOD":"95.592","COUNTRY_CODE":"US","OBJECT_NAME":"STARLINK-1920","MEAN_MOTION_DDOT":"0.0000000000000","MEAN_ELEMENT_THEORY":"SGP4","BSTAR":"0.00003026200000","MEAN_MOTION_DOT":"0.00000169","REF_FRAME":"TEME","OBJECT_ID":"2020-074N","EPOCH":"2023-01-30T22:49:29.912160","DECAY_DATE":null},{"OBJECT_NAME":"STARLINK-1921","MEAN_MOTION_DDOT":"0.0000000000000","MEAN_ELEMENT_THEORY":"SGP4","COUNTRY_CODE":"US","MEAN_MOTION_DOT":"-0.00000239","BSTAR":"0.00000284230000","DECAY_DATE":null,"EPOCH":"2023-01-30T08:45:33.998976","OBJECT_ID":"2020-074P","REF_FRAME":"TEME","CLASSIFICATION_TYPE":"U","ECCENTRICITY":"0.00012360","TLE_LINE2":"2 46752  53.0541  13.8048 0001236  91.4532 268.6599 15.06397107125703","PERIOD":"95.592","CENTER_NAME":"EARTH","LAUNCH_DATE":"2020-10-24","PERIAPSIS":"546.366","INCLINATION":"53.0541","SEMIMAJOR_AXIS":"6925.357","MEAN_ANOMALY":"268.6599","ELEMENT_SET_NO":"999","SITE":"AFETR","OBJECT_TYPE":"PAYLOAD","FILE":"3765576","EPHEMERIS_TYPE":"0","GP_ID":"223993573","ARG_OF_PERICENTER":"91.4532","REV_AT_EPOCH":"12570","MEAN_MOTION":"15.06397107","TLE_LINE1":"1 46752U 20074P   23030.36497684 -.00000239  00000-0  28423-5 0  9991","NORAD_CAT_ID":"46752","APOAPSIS":"548.078","RA_OF_ASC_NODE":"13.8048","RCS_SIZE":"LARGE","TIME_SYSTEM":"UTC"},{"COUNTRY_CODE":"US","MEAN_ELEMENT_THEORY":"SGP4","MEAN_MOTION_DDOT":"0.0000000000000","OBJECT_NAME":"STARLINK-1922","BSTAR":"0.00005371200000","MEAN_MOTION_DOT":"0.00000519","REF_FRAME":"TEME","EPOCH":"2023-01-30T22:17:39.142464","OBJECT_ID":"2020-074Q","DECAY_DATE":null,"ECCENTRICITY":"0.00015090","CLASSIFICATION_TYPE":"U","TLE_LINE2":"2 46753  53.0539  11.2720 0001509  93.7349 266.3812 15.06397254125799","PERIOD":"95.592","PERIAPSIS":"546.177","LAUNCH_DATE":"2020-10-24","CENTER_NAME":"EARTH","INCLINATION":"53.0539","SEMIMAJOR_AXIS":"6925.357","MEAN_ANOMALY":"266.3812","OBJECT_TYPE":"PAYLOAD","SITE":"AFETR","ELEMENT_SET_NO":"999","MEAN_MOTION":"15.06397254","GP_ID":"224050780","REV_AT_EPOCH":"12579","ARG_OF_PERICENTER":"93.7349","FILE":"3765849","EPHEMERIS_TYPE":"0","RCS_SIZE":"LARGE","TIME_SYSTEM":"UTC","RA_OF_ASC_NODE":"11.2720","NORAD_CAT_ID":"46753","APOAPSIS":"548.267","TLE_LINE1":"1 46753U 20074Q   23030.92892526  .00000519  00000-0  53712-4 0  9996"},{"REF_FRAME":"TEME","EPOCH":"2023-01-30T08:08:24.881568","OBJECT_ID":"2020-074R","DECAY_DATE":null,"BSTAR":"0.00030267000000","MEAN_MOTION_DOT":"0.00004230","COUNTRY_CODE":"US","OBJECT_NAME":"STARLINK-1923","MEAN_MOTION_DDOT":"0.0000000000000","MEAN_ELEMENT_THEORY":"SGP4","PERIOD":"95.592","TLE_LINE2":"2 46754  53.0559  13.9176 0001496  93.9111 266.2049 15.06403825125704","ECCENTRICITY":"0.00014960","CLASSIFICATION_TYPE":"U","MEAN_ANOMALY":"266.2049","SEMIMAJOR_AXIS":"6925.337","INCLINATION":"53.0559","PERIAPSIS":"546.166","LAUNCH_DATE":"2020-10-24","CENTER_NAME":"EARTH","RCS_SIZE":"LARGE","RA_OF_ASC_NODE":"13.9176","TIME_SYSTEM":"UTC","NORAD_CAT_ID":"46754","APOAPSIS":"548.238","TLE_LINE1":"1 46754U 20074R   23030.33917687  .00004230  00000-0  30267-3 0  9991","MEAN_MOTION":"15.06403825","ARG_OF_PERICENTER":"93.9111","GP_ID":"223993085","REV_AT_EPOCH":"12570","FILE":"3765576","EPHEMERIS_TYPE":"0","OBJECT_TYPE":"PAYLOAD","SITE":"AFETR","ELEMENT_SET_NO":"999"},{"ECCENTRICITY":"0.00018590","CLASSIFICATION_TYPE":"U","PERIOD":"95.592","TLE_LINE2":"2 46755  53.0559  16.2110 0001859  92.5019 267.6183 15.06399006125725","BSTAR":"0.00005161900000","MEAN_MOTION_DOT":"0.00000487","COUNTRY_CODE":"US","MEAN_MOTION_DDOT":"0.0000000000000","OBJECT_NAME":"STARLINK-1924","MEAN_ELEMENT_THEORY":"SGP4","REF_FRAME":"TEME","OBJECT_ID":"2020-074S","EPOCH":"2023-01-30T22:35:33.955008","DECAY_DATE":null,"OBJECT_TYPE":"PAYLOAD","SITE":"AFETR","ELEMENT_SET_NO":"999","TIME_SYSTEM":"UTC","RCS_SIZE":"LARGE","RA_OF_ASC_NODE":"16.2110","APOAPSIS":"548.504","NORAD_CAT_ID":"46755","TLE_LINE1":"1 46755U 20074S   23030.94136522  .00000487  00000-0  51619-4 0  9995","MEAN_MOTION":"15.06399006","REV_AT_EPOCH":"12572","GP_ID":"224051282","ARG_OF_PERICENTER":"92.5019","FILE":"3765849","EPHEMERIS_TYPE":"0","INCLINATION":"53.0559","PERIAPSIS":"545.929","LAUNCH_DATE":"2020-10-24","CENTER_NAME":"EARTH","MEAN_ANOMALY":"267.6183","SEMIMAJOR_AXIS":"6925.352"},{"SEMIMAJOR_AXIS":"6925.368","MEAN_ANOMALY":"256.9608","LAUNCH_DATE":"2020-10-24","PERIAPSIS":"545.977","CENTER_NAME":"EARTH","INCLINATION":"53.0562","GP_ID":"223994074","REV_AT_EPOCH":"12561","ARG_OF_PERICENTER":"103.1583","MEAN_MOTION":"15.06393713","EPHEMERIS_TYPE":"0","FILE":"3765576","APOAPSIS":"548.488","NORAD_CAT_ID":"46756","TIME_SYSTEM":"UTC","RCS_SIZE":"LARGE","RA_OF_ASC_NODE":"19.7479","TLE_LINE1":"1 46756U 20074T   23030.24108998  .00000755  00000-0  69620-4 0  9994","SITE":"AFETR","OBJECT_TYPE":"PAYLOAD","ELEMENT_SET_NO":"999","OBJECT_ID":"2020-074T","EPOCH":"2023-01-30T05:47:10.174272","REF_FRAME":"TEME","DECAY_DATE":null,"MEAN_MOTION_DDOT":"0.0000000000000","MEAN_ELEMENT_THEORY":"SGP4","OBJECT_NAME":"STARLINK-1925","COUNTRY_CODE":"US","MEAN_MOTION_DOT":"0.00000755","BSTAR":"0.00006962000000","TLE_LINE2":"2 46756  53.0562  19.7479 0001813 103.1583 256.9608 15.06393713125611","PERIOD":"95.593","ECCENTRICITY":"0.00018130","CLASSIFICATION_TYPE":"U"},{"INCLINATION":"53.0573","CENTER_NAME":"EARTH","LAUNCH_DATE":"2020-10-24","PERIAPSIS":"546.038","MEAN_ANOMALY":"262.2865","SEMIMAJOR_AXIS":"6925.324","ELEMENT_SET_NO":"999","SITE":"AFETR","OBJECT_TYPE":"PAYLOAD","TLE_LINE1":"1 46757U 20074U   23030.38850121  .00004033  00000-0  28943-3 0  9997","NORAD_CAT_ID":"46757","APOAPSIS":"548.340","RCS_SIZE":"LARGE","TIME_SYSTEM":"UTC","RA_OF_ASC_NODE":"18.9297","EPHEMERIS_TYPE":"0","FILE":"3765576","ARG_OF_PERICENTER":"97.8313","GP_ID":"223992837","REV_AT_EPOCH":"12563","MEAN_MOTION":"15.06408089","MEAN_MOTION_DOT":"0.00004033","BSTAR":"0.00028943000000","MEAN_MOTION_DDOT":"0.0000000000000","OBJECT_NAME":"STARLINK-1926","MEAN_ELEMENT_THEORY":"SGP4","COUNTRY_CODE":"US","DECAY_DATE":null,"OBJECT_ID":"2020-074U","EPOCH":"2023-01-30T09:19:26.504544","REF_FRAME":"TEME","CLASSIFICATION_TYPE":"U","ECCENTRICITY":"0.00016620","PERIOD":"95.592","TLE_LINE2":"2 46757  53.0573  18.9297 0001662  97.8313 262.2865 15.06408089125635"},{"GP_ID":"223992585","ARG_OF_PERICENTER":"101.7034","REV_AT_EPOCH":"12564","MEAN_MOTION":"15.06414503","FILE":"3765576","EPHEMERIS_TYPE":"0","NORAD_CAT_ID":"46758","APOAPSIS":"548.238","RA_OF_ASC_NODE":"18.6717","RCS_SIZE":"LARGE","TIME_SYSTEM":"UTC","TLE_LINE1":"1 46758U 20074V   23030.39215626  .00006508  00000-0  45519-3 0  9991","SITE":"AFETR","OBJECT_TYPE":"PAYLOAD","ELEMENT_SET_NO":"999","SEMIMAJOR_AXIS":"6925.304","MEAN_ANOMALY":"258.4129","LAUNCH_DATE":"2020-10-24","PERIAPSIS":"546.101","CENTER_NAME":"EARTH","INCLINATION":"53.0568","TLE_LINE2":"2 46758  53.0568  18.6717 0001543 101.7034 258.4129 15.06414503125646","PERIOD":"95.591","ECCENTRICITY":"0.00015430","CLASSIFICATION_TYPE":"U","OBJECT_ID":"2020-074V","EPOCH":"2023-01-30T09:24:42.300864","REF_FRAME":"TEME","DECAY_DATE":null,"MEAN_ELEMENT_THEORY":"SGP4","MEAN_MOTION_DDOT":"0.0000000000000","OBJECT_NAME":"STARLINK-1928","COUNTRY_CODE":"US","MEAN_MOTION_DOT":"0.00006508","BSTAR":"0.00045519000000"},{"ECCENTRICITY":"0.00014750","CLASSIFICATION_TYPE":"U","TLE_LINE2":"2 46759  53.0522  28.7080 0001475  96.0923 264.0234 15.06402759125492","PERIOD":"95.592","COUNTRY_CODE":"US","MEAN_MOTION_DDOT":"0.0000000000000","OBJECT_NAME":"STARLINK-1833","MEAN_ELEMENT_THEORY":"SGP4","BSTAR":"0.00011758000000","MEAN_MOTION_DOT":"0.00001470","REF_FRAME":"TEME","OBJECT_ID":"2020-074W","EPOCH":"2023-01-30T09:18:04.284576","DECAY_DATE":null,"OBJECT_TYPE":"PAYLOAD","SITE":"AFETR","ELEMENT_SET_NO":"999","MEAN_MOTION":"15.06402759","REV_AT_EPOCH":"12549","GP_ID":"223993835","ARG_OF_PERICENTER":"96.0923","FILE":"3765576","EPHEMERIS_TYPE":"0","TIME_SYSTEM":"UTC","RCS_SIZE":"LARGE","RA_OF_ASC_NODE":"28.7080","NORAD_CAT_ID":"46759","APOAPSIS":"548.227","TLE_LINE1":"1 46759U 20074W   23030.38754959  .00001470  00000-0  11758-3 0  9999","PERIAPSIS":"546.184","LAUNCH_DATE":"2020-10-24","CENTER_NAME":"EARTH","INCLINATION":"53.0522","SEMIMAJOR_AXIS":"6925.340","MEAN_ANOMALY":"264.0234"}];
